NORAD_CAT_ID,OBJECT_NAME,OBJECT_TYPE,EPOCH,MEAN_MOTION,ECCENTRICITY,INCLINATION,RA_OF_ASC_NODE,ARG_OF_PERICENTER,MEAN_ANOMALY,BSTAR,MEAN_MOTION_DOT,MEAN_MOTION_DDOT,TLE_LINE0,TLE_LINE1,TLE_LINE2,SEMIMAJOR_AXIS,PERIOD,APOGEE,PERIGEE,DECAYED
51855.0,STARLINK-3545,PAYLOAD,2024-03-15 04:01:45,15.08846241,0.0001488,53.2176,31.5461,103.4631,256.6527,0.00018857,2.715e-05,0.0,0 STARLINK-3545,1 51855U 22022D   24075.16789035  .00002715  00000-0  18857-3 0  9996,2 51855  53.2176  31.5461 0001488 103.4631 256.6527 15.08846241113590,6917.861,95.437,540.756,538.697,0.0
51855.0,STARLINK-3545,PAYLOAD,2024-03-15 21:31:00,15.08841639,0.0001749,53.2173,28.2719,82.6779,277.4412,0.00011778,1.587e-05,0.0,0 STARLINK-3545,1 51855U 22022D   24075.89653454  .00001587  00000-0  11778-3 0  9992,2 51855  53.2173  28.2719 0001749  82.6779 277.4412 15.08841639113700,6917.875,95.437,540.95,538.53,0.0
51855.0,STARLINK-3545,PAYLOAD,2024-03-16 05:27:56,15.08841708,0.0001535,53.2179,26.7844,103.9945,256.1218,7.7152e-05,9.4e-06,0.0,0 STARLINK-3545,1 51855U 22022D   24076.22773351  .00000940  00000-0  77152-4 0  9990,2 51855  53.2179  26.7844 0001535 103.9945 256.1218 15.08841708113753,6917.875,95.437,540.802,538.678,0.0
51855.0,STARLINK-3545,PAYLOAD,2024-03-17 03:43:20,15.08843178,0.0001493,53.2192,22.6217,92.3917,267.7246,7.0364e-05,8.32e-06,0.0,0 STARLINK-3545,1 51855U 22022D   24077.15509496  .00000832  00000-0  70364-4 0  9998,2 51855  53.2192  22.6217 0001493  92.3917 267.7246 15.08843178113897,6917.871,95.437,540.769,538.703,0.0
51855.0,STARLINK-3545,PAYLOAD,2024-03-17 05:18:43,15.08844565,0.0001535,53.2193,22.3242,95.4193,264.6975,8.7445e-05,1.104e-05,0.0,0 STARLINK-3545,1 51855U 22022D   24077.22133409  .00001104  00000-0  87445-4 0  9994,2 51855  53.2193  22.3242 0001535  95.4193 264.6975 15.08844565113908,6917.866,95.437,540.793,538.67,0.0
51855.0,STARLINK-3545,PAYLOAD,2024-03-17 19:37:11,15.08841709,0.0001734,53.219,19.6559,77.545,282.5736,0.00016489,2.337e-05,0.0,0 STARLINK-3545,1 51855U 22022D   24077.81749753  .00002337  00000-0  16489-3 0  9992,2 51855  53.2190  19.6559 0001734  77.5450 282.5736 15.08841709113993,6917.875,95.437,540.94,538.541,0.0
51855.0,STARLINK-3545,PAYLOAD,2024-03-18 05:09:30,15.08842207,0.0001563,53.2187,17.8703,81.4846,278.6323,0.00013539,1.868e-05,0.0,0 STARLINK-3545,1 51855U 22022D   24078.21493721  .00001868  00000-0  13539-3 0  9999,2 51855  53.2187  17.8703 0001563  81.4846 278.6323 15.08842207114053,6917.874,95.437,540.82,538.657,0.0
51855.0,STARLINK-3545,PAYLOAD,2024-03-19 03:24:54,15.08847101,0.0001533,53.2188,13.7076,84.8568,275.2599,0.00011572,1.555e-05,0.0,0 STARLINK-3545,1 51855U 22022D   24079.14229582  .00001555  00000-0  11572-3 0  9992,2 51855  53.2188  13.7076 0001533  84.8568 275.2599 15.08847101114198,6917.859,95.437,540.784,538.663,0.0
51855.0,STARLINK-3545,PAYLOAD,2024-03-20 01:40:17,15.08858084,0.0001647,53.2192,9.5448,78.7477,281.37,0.00031275,4.695e-05,0.0,0 STARLINK-3545,1 51855U 22022D   24080.06964769  .00004695  00000-0  31275-3 0  9998,2 51855  53.2192   9.5448 0001647  78.7477 281.3700 15.08858084114336,6917.825,95.436,540.829,538.551,0.0
51855.0,STARLINK-3545,PAYLOAD,2024-03-20 22:20:19,15.08838829,0.000146,53.2195,5.6739,89.805,270.311,-4.835e-05,-1.057e-05,0.0,0 STARLINK-3545,1 51855U 22022D   24080.93077781 -.00001057  00000-0 -48350-4 0  9997,2 51855  53.2195   5.6739 0001460  89.8050 270.3110 15.08838829114464,6917.884,95.438,540.759,538.739,0.0
51855.0,STARLINK-3545,PAYLOAD,2024-03-21 01:31:05,15.08835103,0.0001428,53.2186,5.0825,82.0469,278.0685,-0.00010564,-1.969e-05,0.0,0 STARLINK-3545,1 51855U 22022D   24081.06326010 -.00001969  00000-0 -10564-3 0  9991,2 51855  53.2186   5.0825 0001428  82.0469 278.0685 15.08835103114483,6917.895,95.438,540.748,538.772,0.0
51855.0,STARLINK-3545,PAYLOAD,2024-03-21 19:00:19,15.08845799,0.0001289,53.2184,1.8117,80.0853,280.0285,-1.3822e-05,-5.08e-06,0.0,0 STARLINK-3545,1 51855U 22022D   24081.79189725 -.00000508  00000-0 -13822-4 0  9990,2 51855  53.2184   1.8117 0001289  80.0853 280.0285 15.08845799114592,6917.863,95.437,540.619,538.836,0.0
51855.0,STARLINK-3545,PAYLOAD,2024-03-21 22:11:05,15.08858834,0.0001472,53.2193,1.2167,92.4708,267.6452,0.00025655,3.799e-05,0.0,0 STARLINK-3545,1 51855U 22022D   24081.92436853  .00003799  00000-0  25655-3 0  9991,2 51855  53.2193   1.2167 0001472  92.4708 267.6452 15.08858834114615,6917.823,95.436,540.706,538.67,0.0
51855.0,STARLINK-3545,PAYLOAD,2024-03-22 04:32:37,15.08862389,0.0001946,53.2193,0.0228,110.7928,249.3273,0.00050449,7.755e-05,0.0,0 STARLINK-3545,1 51855U 22022D   24082.18932686  .00007755  00000-0  50449-3 0  9990,2 51855  53.2193   0.0228 0001946 110.7928 249.3273 15.08862389114656,6917.812,95.436,541.023,538.331,0.0
51855.0,STARLINK-3545,PAYLOAD,2024-03-22 22:01:53,15.08835099,0.0001151,53.2188,356.7618,59.27,300.8406,3.1374e-05,2.11e-06,0.0,0 STARLINK-3545,1 51855U 22022D   24082.91798056  .00000211  00000-0  31374-4 0  9999,2 51855  53.2188 356.7618 0001151  59.2700 300.8406 15.08835099114768,6917.895,95.438,540.557,538.964,0.0
51855.0,STARLINK-3545,PAYLOAD,2024-03-23 04:23:25,15.08849792,0.0001725,53.2186,355.5598,121.1192,238.997,0.00017916,2.565e-05,0.0,0 STARLINK-3545,1 51855U 22022D   24083.18293155  .00002565  00000-0  17916-3 0  9998,2 51855  53.2186 355.5598 0001725 121.1192 238.9970 15.08849792114808,6917.85,95.437,540.909,538.522,0.0
51855.0,STARLINK-3545,PAYLOAD,2024-03-23 21:52:40,15.08835717,0.0002332,53.2179,352.2854,136.7526,223.3649,0.00018308,2.626e-05,0.0,0 STARLINK-3545,1 51855U 22022D   24083.91157456  .00002626  00000-0  18308-3 0  9996,2 51855  53.2179 352.2854 0002332 136.7526 223.3649 15.08835717114912,6917.893,95.438,541.372,538.145,0.0
51855.0,STARLINK-3545,PAYLOAD,2024-03-23 23:28:03,15.08833524,0.0001731,53.2183,351.9942,121.8593,238.2567,0.00014732,2.057e-05,0.0,0 STARLINK-3545,1 51855U 22022D   24083.97781619  .00002057  00000-0  14732-3 0  9991,2 51855  53.2183 351.9942 0001731 121.8593 238.2567 15.08833524114921,6917.9,95.438,540.963,538.568,0.0
51855.0,STARLINK-3545,PAYLOAD,2024-03-24 10:35:45,15.0884152,0.000124,53.2175,349.9144,70.0309,290.0816,0.00069588,0.00010805,0.0,0 STARLINK-3545,1 51855U 22022D   24084.44150017  .00010805  00000-0  69588-3 0  9995,2 51855  53.2175 349.9144 0001240  70.0309 290.0816 15.08841520114993,6917.876,95.437,540.599,538.883,0.0
51855.0,STARLINK-3545,PAYLOAD,2024-03-24 21:43:28,15.08824105,0.0001356,53.2174,347.8317,85.1967,274.918,0.00031812,4.776e-05,0.0,0 STARLINK-3545,1 51855U 22022D   24084.90519017  .00004776  00000-0  31812-3 0  9994,2 51855  53.2174 347.8317 0001356  85.1967 274.9180 15.08824105115060,6917.929,95.439,540.732,538.856,0.0
51855.0,STARLINK-3545,PAYLOAD,2024-03-25 02:29:37,15.08845123,0.0001673,53.2175,346.9348,120.8667,239.249,0.00091647,0.0001433,0.0,0 STARLINK-3545,1 51855U 22022D   24085.10390641  .00014330  00000-0  91647-3 0  9996,2 51855  53.2175 346.9348 0001673 120.8667 239.2490 15.08845123115095,6917.865,95.437,540.887,538.572,0.0
51855.0,STARLINK-3545,PAYLOAD,2024-03-25 10:26:34,15.0882599,0.000222,53.2182,345.449,93.1077,267.0169,0.00045625,6.978e-05,0.0,0 STARLINK-3545,1 51855U 22022D   24085.43511756  .00006978  00000-0  45625-3 0  9998,2 51855  53.2182 345.4490 0002220  93.1077 267.0169 15.08825990115149,6917.923,95.438,541.324,538.252,0.0
51855.0,STARLINK-3545,PAYLOAD,2024-03-25 21:34:16,15.0882646,0.0001587,53.216,343.3728,73.2254,286.8912,0.00026857,3.987e-05,0.0,0 STARLINK-3545,1 51855U 22022D   24085.89880006  .00003987  00000-0  26857-3 0  9998,2 51855  53.2160 343.3728 0001587  73.2254 286.8912 15.08826460115213,6917.922,95.438,540.885,538.689,0.0
51855.0,STARLINK-3545,PAYLOAD,2024-03-26 10:17:21,15.08837352,0.0001767,53.2186,340.9929,90.8117,269.3077,0.00039263,5.966e-05,0.0,0 STARLINK-3545,1 51855U 22022D   24086.42872095  .00005966  00000-0  39263-3 0  9991,2 51855  53.2186 340.9929 0001767  90.8117 269.3077 15.08837352115298,6917.888,95.438,540.976,538.531,0.0
51855.0,STARLINK-3545,PAYLOAD,2024-03-26 21:25:03,15.0884305,0.0001717,53.2179,338.9109,85.4732,274.6456,0.00041963,6.397e-05,0.0,0 STARLINK-3545,1 51855U 22022D   24086.89240025  .00006397  00000-0  41963-3 0  9993,2 51855  53.2179 338.9109 0001717  85.4732 274.6456 15.08843050115365,6917.871,95.437,540.924,538.548,0.0
51855.0,STARLINK-3545,PAYLOAD,2024-03-26 23:00:26,15.08842852,0.000132,53.2156,338.6144,89.8591,270.2552,0.00040444,6.155e-05,0.0,0 STARLINK-3545,1 51855U 22022D   24086.95863886  .00006155  00000-0  40444-3 0  9991,2 51855  53.2156 338.6144 0001320  89.8591 270.2552 15.08842852115376,6917.872,95.437,540.65,538.824,0.0
51855.0,STARLINK-3545,PAYLOAD,2024-03-27 10:08:07,15.08852335,0.0001391,53.2154,336.5361,89.6119,270.5033,0.00034983,5.286e-05,0.0,0 STARLINK-3545,1 51855U 22022D   24087.42231424  .00005286  00000-0  34983-3 0  9996,2 51855  53.2154 336.5361 0001391  89.6119 270.5033 15.08852335115446,6917.843,95.437,540.67,538.745,0.0
51855.0,STARLINK-3545,PAYLOAD,2024-03-27 22:51:13,15.08844991,0.0001574,53.2201,334.1551,94.7203,265.3969,0.00020034,2.902e-05,0.0,0 STARLINK-3545,1 51855U 22022D   24087.95223487  .00002902  00000-0  20034-3 0  9998,2 51855  53.2201 334.1551 0001574  94.7203 265.3969 15.08844991115526,6917.865,95.437,540.819,538.641,0.0
51855.0,STARLINK-3545,PAYLOAD,2024-03-28 09:58:54,15.088553,0.0001659,53.2185,332.0732,104.1626,255.9551,0.00024358,3.592e-05,0.0,0 STARLINK-3545,1 51855U 22022D   24088.41590815  .00003592  00000-0  24358-3 0  9991,2 51855  53.2185 332.0732 0001659 104.1626 255.9551 15.08855300115599,6917.834,95.437,540.846,538.551,0.0
51855.0,STARLINK-3545,PAYLOAD,2024-03-28 21:06:34,15.08882199,0.0001168,53.2158,329.9905,123.335,236.7754,0.00059027,9.129e-05,0.0,0 STARLINK-3545,1 51855U 22022D   24088.87956694  .00009129  00000-0  59027-3 0  9995,2 51855  53.2158 329.9905 0001168 123.3350 236.7754 15.08882199115664,6917.751,95.435,540.424,538.808,0.0
